CCSDS_OMM_VERS = 2.0
CREATION_DATE  = 
ORIGINATOR     = 

OBJECT_NAME    = XRISM
OBJECT_ID      = 2023-137A
CENTER_NAME    = EARTH
REF_FRAME      = TEME
TIME_SYSTEM    = UTC
MEAN_ELEMENT_THEORY = SGP/SGP4

EPOCH          = 2026-03-08T23:31:33.542976
MEAN_MOTION    = 15.11493622
ECCENTRICITY   = .0008039
INCLINATION    = 31.0015
RA_OF_ASC_NODE = 288.2532
ARG_OF_PERICENTER = 31.3997
MEAN_ANOMALY   = 328.7120

EPHEMERIS_TYPE = 0
CLASSIFICATION_TYPE = U
NORAD_CAT_ID   = 57800
ELEMENT_SET_NO = 999
REV_AT_EPOCH   = 13768
BSTAR          = .43682112E-3
MEAN_MOTION_DOT = .7684E-4
MEAN_MOTION_DDOT = 0

CCSDS_OMM_VERS = 2.0
CREATION_DATE  = 
ORIGINATOR     = 

OBJECT_NAME    = ACS3
OBJECT_ID      = 2024-077B
CENTER_NAME    = EARTH
REF_FRAME      = TEME
TIME_SYSTEM    = UTC
MEAN_ELEMENT_THEORY = SGP/SGP4

EPOCH          = 2026-03-08T20:23:55.260096
MEAN_MOTION    = 13.89586973
ECCENTRICITY   = .00590059
INCLINATION    = 97.2078
RA_OF_ASC_NODE = 9.1508
ARG_OF_PERICENTER = 78.9295
MEAN_ANOMALY   = 281.8497

EPHEMERIS_TYPE = 0
CLASSIFICATION_TYPE = U
NORAD_CAT_ID   = 59588
ELEMENT_SET_NO = 999
REV_AT_EPOCH   = 9408
BSTAR          = .28801941E-1
MEAN_MOTION_DOT = .3588E-3
MEAN_MOTION_DDOT = 0

CCSDS_OMM_VERS = 2.0
CREATION_DATE  = 
ORIGINATOR     = 

OBJECT_NAME    = SZ-21 MODULE
OBJECT_ID      = 2025-246C
CENTER_NAME    = EARTH
REF_FRAME      = TEME
TIME_SYSTEM    = UTC
MEAN_ELEMENT_THEORY = SGP/SGP4

EPOCH          = 2026-03-08T17:40:24.022560
MEAN_MOTION    = 15.68463397
ECCENTRICITY   = .00013651
INCLINATION    = 41.4736
RA_OF_ASC_NODE = 209.2286
ARG_OF_PERICENTER = 296.9264
MEAN_ANOMALY   = 63.1439

EPHEMERIS_TYPE = 0
CLASSIFICATION_TYPE = U
NORAD_CAT_ID   = 66515
ELEMENT_SET_NO = 999
REV_AT_EPOCH   = 1792
BSTAR          = .4111263E-3
MEAN_MOTION_DOT = .47754E-3
MEAN_MOTION_DDOT = 0

