XRISM                   
1 57800U 23137A   26067.98024934  .00007684  00000+0  43682-3 0  9996
2 57800  31.0015 288.2532 0008039  31.3997 328.7120 15.11493622137686
ACS3                    
1 59588U 24077B   26067.84994514  .00035880  00000+0  28802-1 0  9994
2 59588  97.2078   9.1508 0059005  78.9295 281.8497 13.89586973 94081
SZ-21 MODULE            
1 66515U 25246C   26067.73638915  .00047754  00000+0  41113-3 0  9994
2 66515  41.4736 209.2286 0001365 296.9264  63.1439 15.68463397 17929
